#dP2025 11 25  0  0  0.00000000     289 ORBIT IGS20 BHN ESOC                    
## 2394 172800.00000000   300.00000000 61004 0.0000000000000                    
+  113   G13G22G07G05G31G17G15G16G29G12G19G02G25G30G24G27G06                    
+        G09G03G32G26G08G10G04G18G23G14G11G28G01G21R09R26R27                    
+        R11R22R19R08R03R07R02R17R14R18R21R05R15R12R04R24R16                    
+        E11E12E19E18E14E26E30E08E09E02E07E03E04E05E21E25E27                    
+        E31E36E13E15E33E34E10E29E23E06E16C38C39C40C19C20C27                    
+        C28C22C21C29C30C23C24C26C25C32C33C35C34C36C37C45C44                    
+        C43C41C42C50C48C47C49J07J02J03J04  0  0  0  0  0  0                    
++         5  5  5  5  5  5  5  5  5  5  5  5  5  5  5  5  5                    
++         5  5  5  5  5  5  5  5  5  5  5  5  5  5  6  6  6                    
++         6  6  6  7  6  6  6  6  6  6  6  6  6  6  7  5  6                    
++         5  6  6  6  5  5  6  6  5  5  6  5  4  5  6  5  6                    
++         5  5  5  6  5  5  5  6  6  5  5  7  6  7  6  5  5                    
++         5  6  6  5  5  5  5  5  5  6  5  5  5  6  5  6  5                    
++         5  6  6  6  6  5  5  8  6  6  7  0  0  0  0  0  0                    
%c M  cc GPS ccc cccc cccc cccc cccc ccccc ccccc ccccc ccccc                    
%c cc cc ccc ccc cccc cccc cccc cccc ccccc ccccc ccccc ccccc                    
%f  0.0000000  0.000000000  0.00000000000  0.000000000000000                    
%f  0.0000000  0.000000000  0.00000000000  0.000000000000000                    
%i    0    0    0    0      0      0      0      0         0                    
%i    0    0    0    0      0      0      0      0         0                    
/*   EUROPEAN SPACE OPERATIONS CENTRE - DARMSTADT, GERMANY
/* ---------------------------------------------------------
/*  SP3 FILE GENERATED BY EPNS BAHN TOOL  (DETERMINATION)
/* PCV:ESA23_2372 OL/AL:EOT11A   NONE     YN ORB:CoN CLK:CoN                    
*  2025 11 25 17 10  0.00000000                                                 
PG13  -8071.651065  19442.212223 -16306.096103    693.430365                    
PG22 -11513.420396  13841.442654 -19288.180375    -75.391140                    
PG07 -26009.903588  -5862.820728  -1968.870683   -111.932682                    
PG05   4542.218263  25707.109354   4619.624539   -224.325122                    
PG31  10068.433530 -12449.958205  20959.284564   -181.136906                    
PG17 -22130.233331  13304.776002  -6378.223278     20.664914                    
PG15   3815.232996  18484.244613 -19207.966417    361.220073                    
PG16    925.752205 -25232.656537   7089.576456    154.196533                    
PG29  16841.644698   4118.086380  20122.987453   -419.793069                    
PG12   9631.700939  23482.244568   7568.600533   -604.138842                    
PG19 -20580.316575  16343.838516     13.218236    676.989894                    
PG02 -11577.224179 -15127.675640 -18293.107757    -19.589031                    
PG25  15689.151250  14373.708184  15676.902604    459.648751                    
PG30 -24120.251836   1867.968319 -11074.110525     35.625036                    
PG24  15446.900723  14908.956275 -16397.618441   -224.598841                    
PG27   8968.895455 -21577.393025 -12540.626419    -41.442478                    
PG06 -18117.619307   7021.742959  18246.822750   -578.804903                    
PG09 -18414.232286    -72.152990  19067.961461    764.179109                    
PG03 -12209.161317 -21002.217805  10670.815450    637.326210                    
PG32  20877.192975 -15066.978547  -5827.435964   -233.770738                    
PG26   7618.661684 -17910.598206  17669.021605   -285.035150                    
PG08  -1247.816056 -18619.356316 -18885.477865    519.798343                    
PG10  12093.549368  -9411.666568 -21378.072851   -566.256581                    
PG04  -9734.580900 -11459.532478  21914.944705     26.909370                    
PG18  25889.842176   4584.957793  -4609.962010   -493.512494                    
PG23  15752.528552   6248.760686 -20457.408867    577.090314                    
PG14 -14291.348511   6659.098134 -21273.042808    717.079693                    
PG11  -4135.669544  14603.011166  21854.402469   -532.463696                    
PG28  19697.379657  -6864.496425  16445.920305   -629.065558                    
PG01 -19677.924541 -14754.501135 -10090.681514    353.788161                    
PG21  -4346.437564  22552.473368  13334.390049    336.700821                    
PR09   -549.233766 -17178.355998  18900.895905    292.379421                    
PR26  -9243.700587  -5430.388402  23164.643269   -101.972185                    
PR27  11467.004852 -22758.758022    631.094781     21.665774                    
PR11 -16632.164146 -15654.474567 -11371.636412      0.707222                    
PR22 -23471.786713  -4079.801447  -9094.542237     97.428967                    
PR19  24297.955360  -3599.399479  -6985.557842     22.114006                    
PR08 -10719.057802  -2518.037507  23071.637694     -2.724729                    
PR03    431.304504  17650.599975 -18395.748822    133.965557                    
PR07   -303.122717 -17764.732727  18314.644106    115.346849                    
PR02 -11269.652385  22855.225951  -1809.301190     12.548312                    
PR17   9937.845385   9562.132915  21484.783156    247.408914                    
PR14  11814.504180  22076.141069  -4807.253921     30.484720                    
PR18  22772.975936   4283.465283  10637.306988    234.103784                    
PR21  -6892.982089 -10075.826648 -22383.943472   -257.726610                    
PR05  15225.732163 -13205.737324 -15606.635804    159.606099                    
PR15  16668.866741  14812.989215  12389.727191     61.859291                    
PR12 -11906.350903   1461.738446 -22492.024983     62.055900                    
PR04  10379.699794   2941.132374 -23085.429491    323.634290                    
PR24 -10051.716334  10515.196821  20971.758196   -134.385067                    
PR16  11749.988845  -1461.134411  22592.557375     42.118458                    
PE11  -1510.838972 -17661.460870 -23707.641809   2796.160893                    
PE12  18633.343426  -6988.896001 -21900.911812     -9.902818                    
PE19  23314.865524  -1248.124650 -18193.461393   2482.527174                    
PE18  27217.655904 -15130.190983   7178.539884   2154.694310                    
PE14 -20358.323249   1276.838622 -14483.520606   4218.380523                    
PE26  20261.300810  17980.372512  11949.480317    143.974476                    
PE30 -13101.832975  16565.757822 -20759.727823   -450.178207                    
PE08 -24165.677216  17084.346513    176.966135    -43.962337                    
PE09  10437.076263 -21780.601191  17113.691926   -107.209993                    
PE02 -16958.901286  -5858.569725 -23548.122225     -2.048181                    
PE07 -10294.226212  21879.105048 -17071.864434    -29.080317                    
PE03 -23875.208289   2394.079757  17313.857618     16.299893                    
PE04  24014.997838 -17306.489960    123.287557      4.768949                    
PE05  -9743.118971 -13711.582450  24352.141022     -7.354753                    
PE21  10897.199652  24580.904471  12380.218228   -704.214892                    
PE25 -10622.044237 -24907.886376 -11944.031158     21.454661                    
PE27  -1795.844232  28866.817362  -6336.994548   -834.832612                    
PE31  13252.367881 -16041.494382  21050.907197   -101.521250                    
PE36 -20051.406842 -18018.771098 -12220.691257   -485.573732                    
PE13    947.319939  17432.087981  23915.602318    -43.632451                    
PE15 -19199.415300   6417.509361  21612.269536   -216.570101                    
PE33  27672.965093   8376.495341  -6345.516141      2.914655                    
PE34 -27679.413847  -8126.384980   6615.720859   -219.605977                    
PE10  10057.989780 -12866.735832 -24682.048784   -753.269848                    
PE29  10009.976760  13725.986877 -24248.809875   -153.950484                    
PE23  16956.184151   5732.750195  23565.914327    -16.886789                    
PE06  18354.172701 -21221.624156   9399.560999   -198.216904                    
PE16  -5209.325034 -28928.272717  -3538.205440    -77.456239                    
PC38  -6296.082387  35244.712283  22459.707856    260.032589                    
PC39 -15434.721691  19725.994880 -33887.477517    -16.153783                    
PC40 -23068.799407  31950.197504  14578.642611   -186.766853                    
PC19 -16902.375204   9724.430731  19969.175193   -949.508157                    
PC20 -12915.511811  -9374.836164  22896.421417   -913.084047                    
PC27  -2417.940064 -16060.808280 -22707.613219    560.660286                    
PC28  14501.420154 -16158.919492 -17521.344559    451.859046                    
PC22 -11561.036968  24815.621392   5348.970627    414.855295                    
PC21    456.252875  25128.280535 -12100.069598   -917.666088                    
PC29 -27148.396889   6278.669639  -1529.283729    527.927012                    
PC30 -21433.583527  -6528.473552 -16654.948965    328.416714                    
PC23   7193.476613 -15614.725899  21973.814706   -544.073668                    
PC24  21085.733221  17725.838288   4532.254888    121.777803                    
PC26  11007.050817  23010.233349 -11389.162645   -557.227628                    
PC25  19875.361502     85.344901  19579.260132    922.530332                    
PC32   -583.083523 -25199.870342  11996.535120   -965.369755                    
PC33  16855.278101  -9780.170333 -19984.179487   -972.399001                    
PC35 -15378.701868  16464.917389  16473.277946   -172.162474                    
PC34  21590.113249   6399.394136  16461.251237    828.067048                    
PC36 -19930.471431   -676.232989 -19503.035457    309.932281                    
PC37  -9337.036601 -23138.296136  12461.876802   -891.495999                    
PC45  -7904.225376  14916.725179 -22239.279331   -568.454435                    
PC44   2985.400538  16114.216659  22573.286868    939.517416                    
PC43  26947.573877  -7208.450383    277.493344    125.884376                    
PC41  12032.831776 -24334.561897  -6465.767341   -955.432810                    
PC42  11905.543498  11689.754500 -22327.065194   -941.035517                    
PC50   6861.312671  20106.940038 -18096.965330   -471.566508                    
PC48 -15887.260206  -1627.531771  22887.309722    714.240306                    
PC47 -26724.097050    328.867070  -8039.983859   -348.281880                    
PC49  23259.549136 -12224.495687  -9387.123548   -402.811884                    
PJ07 -25389.122641  33667.767543    -24.840984     -0.007423                    
PJ02 -23394.872802  30255.333126 -12900.978689     -0.267353                    
PJ03 -27642.503353  23028.026025  27243.958191     -3.851554                    
PJ04 -31804.121648  27279.803223  10365.111547     -2.048779                    
EOF                                                                             
